COMMENT,ORIGINATOR,NORAD_CAT_ID,OBJECT_NAME,OBJECT_TYPE,CLASSIFICATION_TYPE,INTLDES,EPOCH,EPOCH_MICROSECONDS,MEAN_MOTION,ECCENTRICITY,INCLINATION,RA_OF_ASC_NODE,ARG_OF_PERICENTER,MEAN_ANOMALY,EPHEMERIS_TYPE,ELEMENT_SET_NO,REV_AT_EPOCH,BSTAR,MEAN_MOTION_DOT,MEAN_MOTION_DDOT,FILE,TLE_LINE0,TLE_LINE1,TLE_LINE2,OBJECT_ID,OBJECT_NUMBER,SEMIMAJOR_AXIS,PERIOD,APOGEE,PERIGEE,DECAYED
GENERATED VIA SPACETRACK.ORG API,18 SPCS,44336,ARIANE 5 DEB (SYLDA),DEBRIS,U,19034D,2023-08-08 16:36:48,405888,3.2168347,0.6568454,6.0479,31.6304,223.8461,59.9131,0,999,3992,0.0071424,0.00028082,0,3975395,0 ARIANE 5 DEB (SYLDA),1 44336U 19034D   23220.69222692  .00028082  00000-0  71424-2 0  9994,2 44336   6.0479  31.6304 6568454 223.8461  59.9131  3.21683470 39924,2019-034D,44336,19384.265,447.645,25738.596,273.665,0
GENERATED VIA SPACETRACK.ORG API,18 SPCS,44336,ARIANE 5 DEB (SYLDA),DEBRIS,U,19034D,2023-08-09 14:57:29,228544,3.21730842,0.6568134,6.05,31.0614,224.9897,58.1794,0,999,3995,0.0063115,0.0002484,0,3976085,0 ARIANE 5 DEB (SYLDA),1 44336U 19034D   23221.62325496  .00024840  00000-0  63115-2 0  9990,2 44336   6.0500  31.0614 6568134 224.9897  58.1794  3.21730842 39952,2019-034D,44336,19382.362,447.579,25734.823,273.632,0
GENERATED VIA SPACETRACK.ORG API,18 SPCS,44336,ARIANE 5 DEB (SYLDA),DEBRIS,U,19034D,2023-08-12 02:32:05,345952,3.21859486,0.6566973,6.0554,29.5542,228.0269,53.8959,0,999,4003,0.006333,0.00024831,0,3978378,0 ARIANE 5 DEB (SYLDA),1 44336U 19034D   23224.10561743  .00024831  00000-0  63330-2 0  9992,2 44336   6.0554  29.5542 6566973 228.0269  53.8959  3.21859486 40032,2019-034D,44336,19377.197,447.4,25724.016,274.109,0
GENERATED VIA SPACETRACK.ORG API,18 SPCS,44336,ARIANE 5 DEB (SYLDA),DEBRIS,U,19034D,2023-08-13 08:19:02,474688,3.21920321,0.6566485,6.0581,28.7967,229.5498,51.8966,0,999,4007,0.0059775,0.00023448,0,3979262,0 ARIANE 5 DEB (SYLDA),1 44336U 19034D   23225.34655642  .00023448  00000-0  59775-2 0  9992,2 44336   6.0581  28.7967 6566485 229.5498  51.8966  3.21920321 40079,2019-034D,44336,19374.756,447.316,25719.026,274.217,0
GENERATED VIA SPACETRACK.ORG API,18 SPCS,44336,ARIANE 5 DEB (SYLDA),DEBRIS,U,19034D,2023-08-15 12:25:40,829952,3.2201814,0.6565511,6.0622,27.4702,232.2117,48.6046,0,999,4014,0.0057372,0.00022346,0,3981161,0 ARIANE 5 DEB (SYLDA),1 44336U 19034D   23227.51783368  .00022346  00000-0  57372-2 0  9997,2 44336   6.0622  27.4702 6565511 232.2117  48.6046  3.22018140 40145,2019-034D,44336,19370.832,447.18,25710.639,274.756,0
GENERATED VIA SPACETRACK.ORG API,18 SPCS,44336,ARIANE 5 DEB (SYLDA),DEBRIS,U,19034D,2023-08-16 18:12:01,788192,3.22076121,0.6565042,6.0643,26.7156,233.7311,46.8252,0,999,4018,0.0063336,0.00024612,0,3982322,0 ARIANE 5 DEB (SYLDA),1 44336U 19034D   23228.75835403  .00024612  00000-0  63336-2 0  9997,2 44336   6.0643  26.7156 6565042 233.7311  46.8252  3.22076121 40180,2019-034D,44336,19368.508,447.099,25705.879,274.866,0
GENERATED VIA SPACETRACK.ORG API,18 SPCS,44336,ARIANE 5 DEB (SYLDA),DEBRIS,U,19034D,2023-08-18 22:17:33,409824,3.22179528,0.6564203,6.0689,25.3926,236.3881,43.8775,0,999,4025,0.0057403,0.00022177,0,3984070,0 ARIANE 5 DEB (SYLDA),1 44336U 19034D   23230.92885891  .00022177  00000-0  57403-2 0  9997,2 44336   6.0689  25.3926 6564203 236.3881  43.8775  3.22179528 40259,2019-034D,44336,19364.363,446.956,25697.389,275.067,0
GENERATED VIA SPACETRACK.ORG API,18 SPCS,44336,ARIANE 5 DEB (SYLDA),DEBRIS,U,19034D,2023-08-21 02:22:21,732096,3.22278425,0.6563367,6.0715,24.0729,239.0433,41.1394,0,999,4032,0.0057617,0.00022088,0,3986151,0 ARIANE 5 DEB (SYLDA),1 44336U 19034D   23233.09886264  .00022088  00000-0  57617-2 0  9991,2 44336   6.0715  24.0729 6563367 239.0433  41.1394  3.22278425 40321,2019-034D,44336,19360.401,446.819,25689.208,275.324,0
GENERATED VIA SPACETRACK.ORG API,18 SPCS,44336,ARIANE 5 DEB (SYLDA),DEBRIS,U,19034D,2023-08-21 17:15:02,350944,3.22308705,0.656312,6.0724,23.6972,239.8009,40.3974,0,999,4034,0.0059707,0.00022857,0,3986722,0 ARIANE 5 DEB (SYLDA),1 44336U 19034D   23233.71877721  .00022857  00000-0  59707-2 0  9994,2 44336   6.0724  23.6972 6563120 239.8009  40.3974  3.22308705 40342,2019-034D,44336,19359.189,446.777,25686.721,275.386,0
GENERATED VIA SPACETRACK.ORG API,18 SPCS,44336,ARIANE 5 DEB (SYLDA),DEBRIS,U,19034D,2023-08-22 00:41:21,322464,3.22321778,0.6563008,6.073,23.5093,240.1797,40.033,0,999,4035,0.0057579,0.00022022,0,3986884,0 ARIANE 5 DEB (SYLDA),1 44336U 19034D   23234.02871901  .00022022  00000-0  57579-2 0  9992,2 44336   6.0730  23.5093 6563008 240.1797  40.0330  3.22321778 40355,2019-034D,44336,19358.665,446.759,25685.638,275.423,0
GENERATED VIA SPACETRACK.ORG API,18 SPCS,44336,ARIANE 5 DEB (SYLDA),DEBRIS,U,19034D,2023-08-24 12:11:21,423840,3.22436921,0.656201,6.0762,21.9957,243.2245,37.2704,0,999,4045,0.0059389,0.00022634,0,3988199,0 ARIANE 5 DEB (SYLDA),1 44336U 19034D   23236.50788685  .00022634  00000-0  59389-2 0  9993,2 44336   6.0762  21.9957 6562010 243.2245  37.2704  3.22436921 40456,2019-034D,44336,19354.056,446.599,25676.072,275.77,0
GENERATED VIA SPACETRACK.ORG API,18 SPCS,44336,ARIANE 5 DEB (SYLDA),DEBRIS,U,19034D,2023-08-25 03:03:43,47648,3.22470008,0.6561751,6.077,21.6208,243.9794,36.6302,0,999,4047,0.0063203,0.00024107,0,3988765,0 ARIANE 5 DEB (SYLDA),1 44336U 19034D   23237.12758157  .00024107  00000-0  63203-2 0  9990,2 44336   6.0770  21.6208 6561751 243.9794  36.6302  3.22470008 40471,2019-034D,44336,19352.732,446.553,25673.378,275.816,0
GENERATED VIA SPACETRACK.ORG API,18 SPCS,44336,ARIANE 5 DEB (SYLDA),DEBRIS,U,19034D,2023-08-25 03:03:43,47648,3.22470008,0.6561751,6.077,21.6208,243.9794,36.6302,0,999,4045,0.0063203,0.00024107,0,3988878,0 ARIANE 5 DEB (SYLDA),1 44336U 19034D   23237.12758157  .00024107  00000-0  63203-2 0  9990,2 44336   6.0770  21.6208 6561751 243.9794  36.6302  3.22470008 40459,2019-034D,44336,19352.732,446.553,25673.378,275.816,0
GENERATED VIA SPACETRACK.ORG API,18 SPCS,44336,ARIANE 5 DEB (SYLDA),DEBRIS,U,19034D,2023-08-26 01:22:07,628736,3.22516088,0.6561422,6.0781,21.0585,245.1158,35.6965,0,999,4050,0.006328,0.00024194,0,3989608,0 ARIANE 5 DEB (SYLDA),1 44336U 19034D   23238.05703274  .00024194  00000-0  63280-2 0  9994,2 44336   6.0781  21.0585 6561422 245.1158  35.6965  3.22516088 40505,2019-034D,44336,19350.889,446.489,25669.689,275.819,0
GENERATED VIA SPACETRACK.ORG API,18 SPCS,44336,ARIANE 5 DEB (SYLDA),DEBRIS,U,19034D,2023-08-26 23:40:23,530944,3.22560612,0.656104,6.0798,20.4963,246.252,34.7973,0,999,4053,0.0064982,0.00024849,0,3990390,0 ARIANE 5 DEB (SYLDA),1 44336U 19034D   23238.98638346  .00024849  00000-0  64982-2 0  9990,2 44336   6.0798  20.4963 6561040 246.2520  34.7973  3.22560612 40531,2019-034D,44336,19349.108,446.428,25666.0,275.946,0
GENERATED VIA SPACETRACK.ORG API,18 SPCS,44336,ARIANE 5 DEB (SYLDA),DEBRIS,U,19034D,2023-08-27 21:58:30,195264,3.22606365,0.6560659,6.081,19.9321,247.3901,33.9257,0,999,4054,0.0059385,0.00022722,0,3991123,0 ARIANE 5 DEB (SYLDA),1 44336U 19034D   23239.91562726  .00022722  00000-0  59385-2 0  9991,2 44336   6.0810  19.9321 6560659 247.3901  33.9257  3.22606365 40540,2019-034D,44336,19347.279,446.364,25662.233,276.054,0
GENERATED VIA SPACETRACK.ORG API,18 SPCS,44336,ARIANE 5 DEB (SYLDA),DEBRIS,U,19034D,2023-08-28 12:50:29,452704,3.22637172,0.6560323,6.0823,19.5575,248.1485,33.3598,0,999,4058,0.0062144,0.00023702,0,3991628,0 ARIANE 5 DEB (SYLDA),1 44336U 19034D   23240.53506311  .00023702  00000-0  62144-2 0  9995,2 44336   6.0823  19.5575 6560323 248.1485  33.3598  3.22637172 40581,2019-034D,44336,19346.047,446.322,25659.544,276.28,0
GENERATED VIA SPACETRACK.ORG API,18 SPCS,44336,ARIANE 5 DEB (SYLDA),DEBRIS,U,19034D,2023-08-29 11:08:20,204736,3.22680427,0.6560004,6.0832,18.9959,249.2852,32.5269,0,999,4061,0.0059352,0.00022651,0,3992439,0 ARIANE 5 DEB (SYLDA),1 44336U 19034D   23241.46412274  .00022651  00000-0  59352-2 0  9991,2 44336   6.0832  18.9959 6560004 249.2852  32.5269  3.22680427 40617,2019-034D,44336,19344.318,446.262,25656.064,276.303,0
GENERATED VIA SPACETRACK.ORG API,18 SPCS,44336,ARIANE 5 DEB (SYLDA),DEBRIS,U,19034D,2023-08-29 11:08:20,204736,3.22680427,0.6560004,6.0832,18.9959,249.2852,32.5269,0,999,4059,0.0059352,0.00022651,0,3992544,0 ARIANE 5 DEB (SYLDA),1 44336U 19034D   23241.46412274  .00022651  00000-0  59352-2 0  9991,2 44336   6.0832  18.9959 6560004 249.2852  32.5269  3.22680427 40594,2019-034D,44336,19344.318,446.262,25656.064,276.303,0
GENERATED VIA SPACETRACK.ORG API,18 SPCS,44336,ARIANE 5 DEB (SYLDA),DEBRIS,U,19034D,2023-08-30 09:26:02,390208,3.22721613,0.6559608,6.0844,18.4386,250.4149,31.7186,0,999,4064,0.0057651,0.00021921,0,3993321,0 ARIANE 5 DEB (SYLDA),1 44336U 19034D   23242.39308322  .00021921  00000-0  57651-2 0  9991,2 44336   6.0844  18.4386 6559608 250.4149  31.7186  3.22721613 40645,2019-034D,44336,19342.672,446.205,25652.572,276.502,0
GENERATED VIA SPACETRACK.ORG API,18 SPCS,44336,ARIANE 5 DEB (SYLDA),DEBRIS,U,19034D,2023-08-30 09:26:02,390208,3.22721613,0.6559608,6.0844,18.4386,250.4149,31.7186,0,999,4062,0.0057651,0.00021921,0,3993371,0 ARIANE 5 DEB (SYLDA),1 44336U 19034D   23242.39308322  .00021921  00000-0  57651-2 0  9991,2 44336   6.0844  18.4386 6559608 250.4149  31.7186  3.22721613 40623,2019-034D,44336,19342.672,446.205,25652.572,276.502,0
GENERATED VIA SPACETRACK.ORG API,18 SPCS,44336,ARIANE 5 DEB (SYLDA),DEBRIS,U,19034D,2023-08-31 00:17:45,955680,3.22747083,0.6559266,6.0854,18.0702,251.1641,31.193,0,999,4064,0.0053506,0.00020226,0,3993674,0 ARIANE 5 DEB (SYLDA),1 44336U 19034D   23243.01233745  .00020226  00000-0  53506-2 0  9999,2 44336   6.0854  18.0702 6559266 251.1641  31.1930  3.22747083 40649,2019-034D,44336,19341.655,446.17,25650.225,276.814,0
